[{"OBJECT_NAME":"STARLINK-5013","OBJECT_ID":"2023-015AV","EPOCH":"2026-03-09T22:00:01.999584","MEAN_MOTION":15.111897,"ECCENTRICITY":0.00014324,"INCLINATION":42.9998,"RA_OF_ASC_NODE":337.2411,"ARG_OF_PERICENTER":265.0781,"MEAN_ANOMALY":110.1108,"EPHEMERIS_TYPE":0,"CLASSIFICATION_TYPE":"U","NORAD_CAT_ID":55492,"ELEMENT_SET_NO":999,"REV_AT_EPOCH":572,"BSTAR":-0.00088768448,"MEAN_MOTION_DOT":-0.00015354,"MEAN_MOTION_DDOT":0},{"OBJECT_NAME":"PRSC-S1","OBJECT_ID":"2025-164A","EPOCH":"2026-03-09T14:34:55.095168","MEAN_MOTION":15.0891951,"ECCENTRICITY":0.0004466,"INCLINATION":41.129,"RA_OF_ASC_NODE":129.3637,"ARG_OF_PERICENTER":348.3012,"MEAN_ANOMALY":11.7698,"EPHEMERIS_TYPE":0,"CLASSIFICATION_TYPE":"U","NORAD_CAT_ID":65055,"ELEMENT_SET_NO":999,"REV_AT_EPOCH":3340,"BSTAR":0.00046631,"MEAN_MOTION_DOT":7.316e-5,"MEAN_MOTION_DDOT":0}]
